start=new Date('2023-05-08T00:00:00.000Z').valueOf();
sats=[{"MEAN_MOTION_DOT":"0.00000325","RCS_SIZE":"LARGE","REV_AT_EPOCH":"4530","TIME_SYSTEM":"UTC","SITE":"AFWTR","EPOCH":"2023-05-07T10:59:19.364064","SEMIMAJOR_AXIS":"6941.156","EPHEMERIS_TYPE":"0","ARG_OF_PERICENTER":"111.6302","TLE_LINE2":"2 53047  97.6579 309.1185 0003040 111.6302 248.5247 15.01256891 45304","PERIOD":"95.920","INCLINATION":"97.6579","COUNTRY_CODE":"US","OBJECT_ID":"2022-077E","OBJECT_NAME":"STARLINK-4352","ECCENTRICITY":"0.00030400","APOAPSIS":"565.132","LAUNCH_DATE":"2022-07-11","REF_FRAME":"TEME","OBJECT_TYPE":"PAYLOAD","MEAN_MOTION_DDOT":"0.0000000000000","MEAN_ELEMENT_THEORY":"SGP4","MEAN_ANOMALY":"248.5247","FILE":"3903215","CENTER_NAME":"EARTH","TLE_LINE1":"1 53047U 22077E   23127.45786301  .00000325  00000-0  29879-4 0  9995","NORAD_CAT_ID":"53047","PERIAPSIS":"560.911","CLASSIFICATION_TYPE":"U","ELEMENT_SET_NO":"999","GP_ID":"231399914","MEAN_MOTION":"15.01256891","DECAY_DATE":null,"BSTAR":"0.00002987900000","RA_OF_ASC_NODE":"309.1185"},{"LAUNCH_DATE":"2022-07-11","REF_FRAME":"TEME","OBJECT_TYPE":"PAYLOAD","ARG_OF_PERICENTER":"93.5067","TLE_LINE2":"2 53048  97.6574 309.3230 0001956  93.5067 313.1980 15.01288366  1300","INCLINATION":"97.6574","COUNTRY_CODE":"US","OBJECT_NAME":"STARLINK-4355","OBJECT_ID":"2022-077F","PERIOD":"95.918","APOAPSIS":"564.282","ECCENTRICITY":"0.00019560","TIME_SYSTEM":"UTC","EPOCH":"2023-05-07T16:00:00.999936","SITE":"AFWTR","SEMIMAJOR_AXIS":"6941.059","EPHEMERIS_TYPE":"0","RCS_SIZE":"LARGE","MEAN_MOTION_DOT":"-0.00080602","REV_AT_EPOCH":"130","BSTAR":"-0.00633770000000","DECAY_DATE":null,"RA_OF_ASC_NODE":"309.3230","NORAD_CAT_ID":"53048","ELEMENT_SET_NO":"999","CLASSIFICATION_TYPE":"U","PERIAPSIS":"561.567","MEAN_MOTION":"15.01288366","GP_ID":"231430495","TLE_LINE1":"1 53048U 22077F   23127.66667824 -.00080602  00000-0 -63377-2 0  9994","CENTER_NAME":"EARTH","MEAN_MOTION_DDOT":"0.0000000000000","MEAN_ELEMENT_THEORY":"SGP4","MEAN_ANOMALY":"313.1980","FILE":"3903413"},{"REV_AT_EPOCH":"4534","RCS_SIZE":"LARGE","MEAN_MOTION_DOT":"0.00000599","EPHEMERIS_TYPE":"0","SEMIMAJOR_AXIS":"6941.134","EPOCH":"2023-05-07T18:51:33.561504","SITE":"AFWTR","TIME_SYSTEM":"UTC","APOAPSIS":"564.365","ECCENTRICITY":"0.00019680","OBJECT_NAME":"STARLINK-4345","COUNTRY_CODE":"US","INCLINATION":"97.6574","OBJECT_ID":"2022-077G","PERIOD":"95.919","TLE_LINE2":"2 53049  97.6574 309.4456 0001968 102.6952 257.4492 15.01264268 45345","ARG_OF_PERICENTER":"102.6952","OBJECT_TYPE":"PAYLOAD","REF_FRAME":"TEME","LAUNCH_DATE":"2022-07-11","FILE":"3903413","MEAN_ANOMALY":"257.4492","MEAN_ELEMENT_THEORY":"SGP4","MEAN_MOTION_DDOT":"0.0000000000000","CENTER_NAME":"EARTH","TLE_LINE1":"1 53049U 22077G   23127.78580511  .00000599  00000-0  51227-4 0  9993","MEAN_MOTION":"15.01264268","GP_ID":"231431245","ELEMENT_SET_NO":"999","PERIAPSIS":"561.633","CLASSIFICATION_TYPE":"U","NORAD_CAT_ID":"53049","RA_OF_ASC_NODE":"309.4456","BSTAR":"0.00005122700000","DECAY_DATE":null},{"DECAY_DATE":null,"BSTAR":"0.00005546000000","RA_OF_ASC_NODE":"309.5779","NORAD_CAT_ID":"53050","MEAN_MOTION":"15.01261297","GP_ID":"231429994","ELEMENT_SET_NO":"999","CLASSIFICATION_TYPE":"U","PERIAPSIS":"561.493","TLE_LINE1":"1 53050U 22077H   23127.92257371  .00000653  00000-0  55460-4 0  9990","CENTER_NAME":"EARTH","MEAN_ELEMENT_THEORY":"SGP4","MEAN_MOTION_DDOT":"0.0000000000000","FILE":"3903413","MEAN_ANOMALY":"262.0114","LAUNCH_DATE":"2022-07-11","OBJECT_TYPE":"PAYLOAD","REF_FRAME":"TEME","TLE_LINE2":"2 53050  97.6576 309.5779 0002183  98.1358 262.0114 15.01261297 45361","ARG_OF_PERICENTER":"98.1358","APOAPSIS":"564.523","ECCENTRICITY":"0.00021830","COUNTRY_CODE":"US","OBJECT_NAME":"STARLINK-4343","INCLINATION":"97.6576","OBJECT_ID":"2022-077H","PERIOD":"95.919","EPOCH":"2023-05-07T22:08:30.368544","SITE":"AFWTR","TIME_SYSTEM":"UTC","EPHEMERIS_TYPE":"0","SEMIMAJOR_AXIS":"6941.143","RCS_SIZE":"LARGE","MEAN_MOTION_DOT":"0.00000653","REV_AT_EPOCH":"4536"},{"OBJECT_TYPE":"PAYLOAD","REF_FRAME":"TEME","LAUNCH_DATE":"2022-07-11","APOAPSIS":"564.263","ECCENTRICITY":"0.00018140","OBJECT_ID":"2022-077J","COUNTRY_CODE":"US","INCLINATION":"97.6576","OBJECT_NAME":"STARLINK-4336","PERIOD":"95.919","TLE_LINE2":"2 53051  97.6576 309.4448 0001814 100.4849 259.6580 15.01262429 45341","ARG_OF_PERICENTER":"100.4849","EPHEMERIS_TYPE":"0","SEMIMAJOR_AXIS":"6941.139","EPOCH":"2023-05-07T18:48:32.613984","SITE":"AFWTR","TIME_SYSTEM":"UTC","REV_AT_EPOCH":"4534","MEAN_MOTION_DOT":"0.00001059","RCS_SIZE":"LARGE","RA_OF_ASC_NODE":"309.4448","DECAY_DATE":null,"BSTAR":"0.00008705200000","MEAN_MOTION":"15.01262429","GP_ID":"231430244","ELEMENT_SET_NO":"999","PERIAPSIS":"561.745","CLASSIFICATION_TYPE":"U","NORAD_CAT_ID":"53051","CENTER_NAME":"EARTH","TLE_LINE1":"1 53051U 22077J   23127.78371081  .00001059  00000-0  87052-4 0  9993","FILE":"3903413","MEAN_ANOMALY":"259.6580","MEAN_ELEMENT_THEORY":"SGP4","MEAN_MOTION_DDOT":"0.0000000000000"},{"DECAY_DATE":null,"BSTAR":"0.00006917600000","RA_OF_ASC_NODE":"309.4465","NORAD_CAT_ID":"53052","ELEMENT_SET_NO":"999","CLASSIFICATION_TYPE":"U","PERIAPSIS":"561.201","MEAN_MOTION":"15.01265183","GP_ID":"231430995","TLE_LINE1":"1 53052U 22077K   23127.78741216  .00000830  00000-0  69176-4 0  9998","CENTER_NAME":"EARTH","MEAN_MOTION_DDOT":"0.0000000000000","MEAN_ELEMENT_THEORY":"SGP4","MEAN_ANOMALY":"265.9495","FILE":"3903413","LAUNCH_DATE":"2022-07-11","REF_FRAME":"TEME","OBJECT_TYPE":"PAYLOAD","ARG_OF_PERICENTER":"94.2025","TLE_LINE2":"2 53052  97.6578 309.4465 0002586  94.2025 265.9495 15.01265183 45341","OBJECT_NAME":"STARLINK-4341","COUNTRY_CODE":"US","INCLINATION":"97.6578","OBJECT_ID":"2022-077K","PERIOD":"95.919","ECCENTRICITY":"0.00025860","APOAPSIS":"564.791","TIME_SYSTEM":"UTC","EPOCH":"2023-05-07T18:53:52.410624","SITE":"AFWTR","SEMIMAJOR_AXIS":"6941.131","EPHEMERIS_TYPE":"0","RCS_SIZE":"LARGE","MEAN_MOTION_DOT":"0.00000830","REV_AT_EPOCH":"4534"},{"REV_AT_EPOCH":"4534","RCS_SIZE":"LARGE","MEAN_MOTION_DOT":"0.00001399","SEMIMAJOR_AXIS":"6941.118","EPHEMERIS_TYPE":"0","TIME_SYSTEM":"UTC","SITE":"AFWTR","EPOCH":"2023-05-07T18:43:12.391392","PERIOD":"95.919","COUNTRY_CODE":"US","OBJECT_NAME":"STARLINK-4337","INCLINATION":"97.6565","OBJECT_ID":"2022-077L","APOAPSIS":"564.360","ECCENTRICITY":"0.00019840","ARG_OF_PERICENTER":"88.6194","TLE_LINE2":"2 53053  97.6565 309.4423 0001984  88.6194 271.5258 15.01269313 45346","REF_FRAME":"TEME","OBJECT_TYPE":"PAYLOAD","LAUNCH_DATE":"2022-07-11","MEAN_ANOMALY":"271.5258","FILE":"3903413","MEAN_MOTION_DDOT":"0.0000000000000","MEAN_ELEMENT_THEORY":"SGP4","TLE_LINE1":"1 53053U 22077L   23127.78000453  .00001399  00000-0  11349-3 0  9999","CENTER_NAME":"EARTH","PERIAPSIS":"561.606","CLASSIFICATION_TYPE":"U","ELEMENT_SET_NO":"999","GP_ID":"231430746","MEAN_MOTION":"15.01269313","NORAD_CAT_ID":"53053","RA_OF_ASC_NODE":"309.4423","DECAY_DATE":null,"BSTAR":"0.00011349000000"},{"MEAN_ELEMENT_THEORY":"SGP4","MEAN_MOTION_DDOT":"0.0000000000000","FILE":"3903413","MEAN_ANOMALY":"252.5963","TLE_LINE1":"1 53054U 22077M   23127.78556131  .00000712  00000-0  60057-4 0  9998","CENTER_NAME":"EARTH","NORAD_CAT_ID":"53054","GP_ID":"231429495","MEAN_MOTION":"15.01263755","CLASSIFICATION_TYPE":"U","PERIAPSIS":"561.448","ELEMENT_SET_NO":"999","DECAY_DATE":null,"BSTAR":"0.00006005700000","RA_OF_ASC_NODE":"309.4459","RCS_SIZE":"LARGE","MEAN_MOTION_DOT":"0.00000712","REV_AT_EPOCH":"4534","SITE":"AFWTR","EPOCH":"2023-05-07T18:51:12.497184","TIME_SYSTEM":"UTC","EPHEMERIS_TYPE":"0","SEMIMAJOR_AXIS":"6941.135","TLE_LINE2":"2 53054  97.6575 309.4459 0002236 107.5506 252.5963 15.01263755 45342","ARG_OF_PERICENTER":"107.5506","ECCENTRICITY":"0.00022360","APOAPSIS":"564.552","PERIOD":"95.919","OBJECT_NAME":"STARLINK-4339","COUNTRY_CODE":"US","INCLINATION":"97.6575","OBJECT_ID":"2022-077M","LAUNCH_DATE":"2022-07-11","OBJECT_TYPE":"PAYLOAD","REF_FRAME":"TEME"},{"CENTER_NAME":"EARTH","TLE_LINE1":"1 53055U 22077N   23127.77815531  .00000897  00000-0  74454-4 0  9990","MEAN_MOTION_DDOT":"0.0000000000000","MEAN_ELEMENT_THEORY":"SGP4","MEAN_ANOMALY":"279.9187","FILE":"3903413","DECAY_DATE":null,"BSTAR":"0.00007445400000","RA_OF_ASC_NODE":"309.4408","NORAD_CAT_ID":"53055","ELEMENT_SET_NO":"999","PERIAPSIS":"561.003","CLASSIFICATION_TYPE":"U","MEAN_MOTION":"15.01262605","GP_ID":"231429745","TIME_SYSTEM":"UTC","EPOCH":"2023-05-07T18:40:32.618784","SITE":"AFWTR","SEMIMAJOR_AXIS":"6941.139","EPHEMERIS_TYPE":"0","RCS_SIZE":"LARGE","MEAN_MOTION_DOT":"0.00000897","REV_AT_EPOCH":"4534","LAUNCH_DATE":"2022-07-11","REF_FRAME":"TEME","OBJECT_TYPE":"PAYLOAD","ARG_OF_PERICENTER":"80.2362","TLE_LINE2":"2 53055  97.6564 309.4408 0002882  80.2362 279.9187 15.01262605 45343","INCLINATION":"97.6564","COUNTRY_CODE":"US","OBJECT_ID":"2022-077N","OBJECT_NAME":"STARLINK-4338","PERIOD":"95.919","APOAPSIS":"565.004","ECCENTRICITY":"0.00028820"},{"TLE_LINE2":"2 53056  97.6570 309.4437 0002138  95.5726 264.5742 15.01263421 45344","ARG_OF_PERICENTER":"95.5726","APOAPSIS":"564.485","ECCENTRICITY":"0.00021380","COUNTRY_CODE":"US","INCLINATION":"97.6570","OBJECT_NAME":"STARLINK-4314","OBJECT_ID":"2022-077P","PERIOD":"95.919","LAUNCH_DATE":"2022-07-11","OBJECT_TYPE":"PAYLOAD","REF_FRAME":"TEME","RCS_SIZE":"LARGE","MEAN_MOTION_DOT":"0.00000795","REV_AT_EPOCH":"4534","EPOCH":"2023-05-07T18:45:52.528608","SITE":"AFWTR","TIME_SYSTEM":"UTC","EPHEMERIS_TYPE":"0","SEMIMAJOR_AXIS":"6941.136","NORAD_CAT_ID":"53056","MEAN_MOTION":"15.01263421","GP_ID":"231430496","ELEMENT_SET_NO":"999","CLASSIFICATION_TYPE":"U","PERIAPSIS":"561.517","BSTAR":"0.00006650100000","DECAY_DATE":null,"RA_OF_ASC_NODE":"309.4437","MEAN_ELEMENT_THEORY":"SGP4","MEAN_MOTION_DDOT":"0.0000000000000","FILE":"3903413","MEAN_ANOMALY":"264.5742","TLE_LINE1":"1 53056U 22077P   23127.78185797  .00000795  00000-0  66501-4 0  9997","CENTER_NAME":"EARTH"}];
